{"epoch":1784902576,"count":18312,"objects":[{"id":"69952","name":"STARLINK-37899","type":"PAYLOAD","l1":"1 69952U 26157K   26205.26609215  .00298830  00000-0  14546-2 0  9990","l2":"2 69952  53.1587 250.1871 0001551  25.1656 334.9442 15.81039504  2370"},{"id":"69953","name":"STARLINK-37900","type":"PAYLOAD","l1":"1 69953U 26157L   26204.63323155  .00191844  00000-0  95062-3 0  9997","l2":"2 69953  53.1583 253.3518 0001185  60.4930 299.6211 15.80951714  2275"},{"id":"69954","name":"STARLINK-37882","type":"PAYLOAD","l1":"1 69954U 26157M   26204.56811895  .00449276  00000-0  21547-2 0  9994","l2":"2 69954  53.1579 253.6567 0001845  34.8314 325.2829 15.80962024  2268"},{"id":"69955","name":"STARLINK-37928","type":"PAYLOAD","l1":"1 69955U 26157N   26204.31511573  .00382847  00000-0  18463-2 0  9991","l2":"2 69955  53.1585 254.9217 0000925 105.5579 254.5546 15.81015719  2226"},{"id":"69956","name":"STARLINK-37824","type":"PAYLOAD","l1":"1 69956U 26157P   26204.31486303  .00363432  00000-0  17582-2 0  9994","l2":"2 69956  53.1587 254.9197 0000819 136.0307 224.0781 15.80998667  2220"},{"id":"69957","name":"STARLINK-37919","type":"PAYLOAD","l1":"1 69957U 26157Q   26204.31469117  .00494702  00000-0  23371-2 0  9997","l2":"2 69957  53.1579 254.9193 0001979 179.2532 180.8494 15.81170529  2225"},{"id":"69958","name":"STARLINK-37964","type":"PAYLOAD","l1":"1 69958U 26157R   26204.75610054  .00339368  00000-0  16464-2 0  9995","l2":"2 69958  53.1580 252.6940 0003240  19.2377 340.8767 15.81001337  2294"},{"id":"69959","name":"STARLINK-37907","type":"PAYLOAD","l1":"1 69959U 26157S   26204.75432663  .00300734  00000-0  14670-2 0  9996","l2":"2 69959  53.1585 252.6810 0001826  43.2361 316.8805 15.80988080  2298"},{"id":"69960","name":"STARLINK-37901","type":"PAYLOAD","l1":"1 69960U 26157T   26204.75315907  .00309476  00000-0  15082-2 0  9999","l2":"2 69960  53.1581 252.6742 0001222  55.5231 304.5907 15.80983997  2291"},{"id":"69961","name":"STARLINK-37910","type":"PAYLOAD","l1":"1 69961U 26157U   26204.43547023  .00380598  00000-0  18387-2 0  9996","l2":"2 69961  53.1583 254.2465 0001959 114.1319 245.9908 15.80983974  2249"},{"id":"69962","name":"STARLINK-37925","type":"PAYLOAD","l1":"1 69962U 26157V   26205.32019453  .00321851  00000-0  15709-2 0  9999","l2":"2 69962  53.1585 249.8090 0001229  42.7550 317.3568 15.80917889  2382"},{"id":"69963","name":"STARLINK-37931","type":"PAYLOAD","l1":"1 69963U 26157W   26205.31961673  .00426758  00000-0  20399-2 0  9992","l2":"2 69963  53.1587 249.8046 0002295 155.7990 204.3141 15.81093423  2385"},{"id":"69964","name":"STARLINK-37914","type":"PAYLOAD","l1":"1 69964U 26157X   26205.31671192  .00388780  00000-0  18635-2 0  9999","l2":"2 69964  53.1591 249.7856 0001087 162.7713 197.3346 15.81132579  2382"},{"id":"69965","name":"STARLINK-37840","type":"PAYLOAD","l1":"1 69965U 26157Y   26205.31375126  .00494612  00000-0  23337-2 0  9995","l2":"2 69965  53.1592 249.7655 0001334 185.0768 175.0241 15.81197193  2384"},{"id":"69966","name":"STARLINK-37894","type":"PAYLOAD","l1":"1 69966U 26157Z   26205.31494612  .00378169  00000-0  18137-2 0  9998","l2":"2 69966  53.1584 249.7719 0000185 221.1386 138.9623 15.81146085  2384"},{"id":"69967","name":"STARLINK-37875","type":"PAYLOAD","l1":"1 69967U 26157AA  26205.31316237  .00612391  00000-0  28281-2 0  9994","l2":"2 69967  53.1587 249.7591 0001316 197.2543 162.8435 15.81356064  2388"},{"id":"69968","name":"STARLINK-36218","type":"PAYLOAD","l1":"1 69968U 26157AB  26205.31087070  .00418111  00000-0  20012-2 0  9993","l2":"2 69968  53.1595 249.7446 0001244 134.7656 225.3468 15.81087000  2380"},{"id":"69969","name":"STARLINK-37921","type":"PAYLOAD","l1":"1 69969U 26157AC  26204.61230466  .00327850  00000-0  15938-2 0  9995","l2":"2 69969  53.1587 253.2087 0000969  43.4684 316.6415 15.80988268  2272"},{"id":"69970","name":"STARLINK-37896","type":"PAYLOAD","l1":"1 69970U 26157AD  26205.30771289  .00495803  00000-0  23813-2 0  9992","l2":"2 69970  53.1590 249.7255 0002724 133.7792 226.3456 15.80807947  2387"},{"id":"69971","name":"STARLINK-37922","type":"PAYLOAD","l1":"1 69971U 26157AE  26205.30729060  .00285315  00000-0  13946-2 0  9994","l2":"2 69971  53.1591 249.7201 0001235  71.4176 288.6981 15.80985602  2389"},{"id":"69972","name":"CHUANG XIN 26 (CX-26)","type":"PAYLOAD","l1":"1 69972U 26158A   26205.31315873 -.00000279  00000-0 -50552-4 0  9992","l2":"2 69972  49.9824 241.9374 0004935 331.0127  29.0512 14.25116005  2005"},{"id":"69975","name":"STARLINK-38024","type":"PAYLOAD","l1":"1 69975U 26159A   26205.18788540  .00463377  00000-0  22878-2 0  9994","l2":"2 69975  97.2854  44.3763 0001550 117.4154 242.7272 15.80872309  3286"},{"id":"69976","name":"STARLINK-37993","type":"PAYLOAD","l1":"1 69976U 26159B   26205.31373790  .00375070  00000-0  18518-2 0  9995","l2":"2 69976  97.2856  44.5108 0000471  47.0086 313.1221 15.81097735  3300"},{"id":"69977","name":"STARLINK-37995","type":"PAYLOAD","l1":"1 69977U 26159C   26205.25002315 -.00296135  00000-0 -20425-2 0  9997","l2":"2 69977  97.2842  44.4337 0001277  92.6024 236.9915 15.75319655  3305"},{"id":"69978","name":"STARLINK-38057","type":"PAYLOAD","l1":"1 69978U 26159D   26205.18563253  .00344797  00000-0  17261-2 0  9993","l2":"2 69978  97.2842  44.3797 0001640  96.8047 263.3407 15.80872684  3289"},{"id":"69979","name":"STARLINK-38063","type":"PAYLOAD","l1":"1 69979U 26159E   26205.12158856  .00391645  00000-0  19526-2 0  9997","l2":"2 69979  97.2847  44.3140 0003166  56.8044 303.3527 15.80841679  3272"},{"id":"69980","name":"STARLINK-38093","type":"PAYLOAD","l1":"1 69980U 26159F   26205.05753632  .00365194  00000-0  18011-2 0  9992","l2":"2 69980  97.2854  44.2469 0002018  41.2149 318.9271 15.81148395  3267"},{"id":"69981","name":"STARLINK-38050","type":"PAYLOAD","l1":"1 69981U 26159G   26205.25002315 -.00153866  00000-0 -10460-2 0  9993","l2":"2 69981  97.2845  44.4406 0001371  84.8352 260.6697 15.75264553  3309"}]}