OBJECT_NAME,OBJECT_ID,EPOCH,MEAN_MOTION,ECCENTRICITY,INCLINATION,RA_OF_ASC_NODE,ARG_OF_PERICENTER,MEAN_ANOMALY,EPHEMERIS_TYPE,CLASSIFICATION_TYPE,NORAD_CAT_ID,ELEMENT_SET_NO,REV_AT_EPOCH,BSTAR,MEAN_MOTION_DOT,MEAN_MOTION_DDOT
STARLINK-37899,2026-157K,2026-07-24T06:23:10.361760,15.81039504,.0001551,53.1587,250.1871,25.1656,334.9442,0,U,69952,999,237,.14545855E-2,.29883E-2,0
STARLINK-37900,2026-157L,2026-07-23T15:11:51.205920,15.80951714,.00011846,53.1583,253.3518,60.4930,299.6211,0,U,69953,999,227,.95062133E-3,.191844E-2,0
STARLINK-37882,2026-157M,2026-07-23T13:38:05.477280,15.80962024,.0001845,53.1579,253.6567,34.8314,325.2829,0,U,69954,999,226,.21547E-2,.449276E-2,0
STARLINK-37928,2026-157N,2026-07-23T07:33:45.999072,15.81015719,.0000925,53.1585,254.9217,105.5579,254.5546,0,U,69955,999,222,.18463E-2,.382847E-2,0
STARLINK-37824,2026-157P,2026-07-23T07:33:24.165792,15.80998667,.0000819,53.1587,254.9197,136.0307,224.0781,0,U,69956,999,222,.17582E-2,.363432E-2,0
STARLINK-37919,2026-157Q,2026-07-23T07:33:09.317088,15.81170529,.0001979,53.1579,254.9193,179.2532,180.8494,0,U,69957,999,222,.23371E-2,.494702E-2,0
STARLINK-37964,2026-157R,2026-07-23T18:08:47.086656,15.81001337,.00032402,53.1580,252.6940,19.2377,340.8767,0,U,69958,999,229,.16463989E-2,.339368E-2,0
STARLINK-37907,2026-157S,2026-07-23T18:06:13.820832,15.80988080,.00018261,53.1585,252.6810,43.2361,316.8805,0,U,69959,999,229,.14669705E-2,.300734E-2,0
STARLINK-37901,2026-157T,2026-07-23T18:04:32.943648,15.80983997,.00012225,53.1581,252.6742,55.5231,304.5907,0,U,69960,999,229,.15082426E-2,.309476E-2,0
STARLINK-37910,2026-157U,2026-07-23T10:27:04.627872,15.80983974,.0001959,53.1583,254.2465,114.1319,245.9908,0,U,69961,999,224,.18387E-2,.380598E-2,0
STARLINK-37925,2026-157V,2026-07-24T07:41:04.807392,15.80917889,.00012288,53.1585,249.8090,42.7550,317.3568,0,U,69962,999,238,.15709163E-2,.321851E-2,0
STARLINK-37931,2026-157W,2026-07-24T07:40:14.885472,15.81093423,.00022947,53.1587,249.8046,155.7990,204.3141,0,U,69963,999,238,.20399155E-2,.426758E-2,0
STARLINK-37914,2026-157X,2026-07-24T07:36:03.909888,15.81132579,.00010866,53.1591,249.7856,162.7713,197.3346,0,U,69964,999,238,.18635368E-2,.38878E-2,0
STARLINK-37840,2026-157Y,2026-07-24T07:31:48.108864,15.81197193,.00013338,53.1592,249.7655,185.0768,175.0241,0,U,69965,999,238,.2333705E-2,.494612E-2,0
STARLINK-37894,2026-157Z,2026-07-24T07:33:31.344768,15.81146085,.00001846,53.1584,249.7719,221.1386,138.9623,0,U,69966,999,238,.1813731E-2,.378169E-2,0
STARLINK-37875,2026-157AA,2026-07-24T07:30:57.228768,15.81356064,.00013156,53.1587,249.7591,197.2543,162.8435,0,U,69967,999,238,.28280716E-2,.612391E-2,0
STARLINK-36218,2026-157AB,2026-07-24T07:27:39.228480,15.81087000,.00012441,53.1595,249.7446,134.7656,225.3468,0,U,69968,999,238,.20012014E-2,.418111E-2,0
STARLINK-37921,2026-157AC,2026-07-23T14:41:43.122624,15.80988268,.00009694,53.1587,253.2087,43.4684,316.6415,0,U,69969,999,227,.15938221E-2,.32785E-2,0
STARLINK-37896,2026-157AD,2026-07-24T07:23:06.393696,15.80807947,.00027243,53.1590,249.7255,133.7792,226.3456,0,U,69970,999,238,.23813187E-2,.495803E-2,0
STARLINK-37922,2026-157AE,2026-07-24T07:22:29.907840,15.80985602,.00012355,53.1591,249.7201,71.4176,288.6981,0,U,69971,999,238,.13945972E-2,.285315E-2,0
CHUANG XIN 26 (CX-26),2026-158A,2026-07-24T07:30:56.914272,14.25116005,.00049347,49.9824,241.9374,331.0127,29.0512,0,U,69972,999,200,-.50552393E-4,-.279E-5,0
STARLINK-38024,2026-159A,2026-07-24T04:30:33.298560,15.80872309,.00015497,97.2854,44.3763,117.4154,242.7272,0,U,69975,999,328,.22878076E-2,.463377E-2,0
STARLINK-37993,2026-159B,2026-07-24T07:31:46.954560,15.81097735,.00004706,97.2856,44.5108,47.0086,313.1221,0,U,69976,999,330,.1851805E-2,.37507E-2,0
STARLINK-37995,2026-159C,2026-07-24T06:00:02.000160,15.75319655,.00012772,97.2842,44.4337,92.6024,236.9915,0,U,69977,999,330,-.204252E-2,-.296135E-2,0
STARLINK-38057,2026-159D,2026-07-24T04:27:18.650592,15.80872684,.00016402,97.2842,44.3797,96.8047,263.3407,0,U,69978,999,328,.17261449E-2,.344797E-2,0
STARLINK-38063,2026-159E,2026-07-24T02:55:05.251584,15.80841679,.00031659,97.2847,44.3140,56.8044,303.3527,0,U,69979,999,327,.19526231E-2,.391645E-2,0
STARLINK-38093,2026-159F,2026-07-24T01:22:51.138048,15.81148395,.00020176,97.2854,44.2469,41.2149,318.9271,0,U,69980,999,326,.18011075E-2,.365194E-2,0
STARLINK-38050,2026-159G,2026-07-24T06:00:02.000160,15.75264553,.0001371,97.2845,44.4406,84.8352,260.6697,0,U,69981,999,330,-.10459717E-2,-.153866E-2,0
